NORAD_CAT_ID,OBJECT_NAME,OBJECT_TYPE,EPOCH,MEAN_MOTION,ECCENTRICITY,INCLINATION,RA_OF_ASC_NODE,ARG_OF_PERICENTER,MEAN_ANOMALY,BSTAR,MEAN_MOTION_DOT,MEAN_MOTION_DDOT,TLE_LINE0,TLE_LINE1,TLE_LINE2,SEMIMAJOR_AXIS,PERIOD,APOGEE,PERIGEE,DECAYED
49449.0,STARLINK-3137,PAYLOAD,2024-01-22 05:22:06,15.08836547,0.0001155,53.2168,109.3028,101.7794,258.3328,0.00013786,1.907e-05,0.0,0 STARLINK-3137,1 49449U 21104AT  24022.22368714  .00001907  00000-0  13786-3 0  9996,2 49449  53.2168 109.3028 0001155 101.7794 258.3328 15.08836547121407,6917.891,95.438,540.555,538.957,0.0
49449.0,STARLINK-3137,PAYLOAD,2024-01-22 11:43:38,15.08841041,0.0001047,53.2166,108.114,100.3353,259.7757,0.00010308,1.353e-05,0.0,0 STARLINK-3137,1 49449U 21104AT  24022.48864539  .00001353  00000-0  10308-3 0  9992,2 49449  53.2166 108.1140 0001047 100.3353 259.7757 15.08841041122523,6917.877,95.437,540.467,539.018,0.0
49449.0,STARLINK-3137,PAYLOAD,2024-01-22 13:19:01,15.08843092,0.0001013,53.2168,107.8164,97.9439,262.1668,0.00012461,1.696e-05,0.0,0 STARLINK-3137,1 49449U 21104AT  24022.55488343  .00001696  00000-0  12461-3 0  9997,2 49449  53.2168 107.8164 0001013  97.9439 262.1668 15.08843092121454,6917.871,95.437,540.437,539.035,0.0
49449.0,STARLINK-3137,PAYLOAD,2024-01-23 11:34:25,15.08845921,0.0001149,53.2169,103.6543,72.6483,287.4634,0.00011226,1.5e-05,0.0,0 STARLINK-3137,1 49449U 21104AT  24023.48224304  .00001500  00000-0  11226-3 0  9997,2 49449  53.2169 103.6543 0001149  72.6483 287.4634 15.08845921121590,6917.862,95.437,540.522,538.932,0.0
49449.0,STARLINK-3137,PAYLOAD,2024-01-24 11:25:13,15.0883921,0.000133,53.2174,99.1931,91.805,268.3095,1.1905e-05,-9.8e-07,0.0,0 STARLINK-3137,1 49449U 21104AT  24024.47584923 -.00000098  00000-0  11905-4 0  9990,2 49449  53.2174  99.1931 0001330  91.8050 268.3095 15.08839210122821,6917.883,95.438,540.668,538.828,0.0
49449.0,STARLINK-3137,PAYLOAD,2024-01-25 08:05:14,15.08843424,0.0001453,53.2182,95.3308,116.7356,243.3785,-9.798e-06,-4.44e-06,0.0,0 STARLINK-3137,1 49449U 21104AT  24025.33696843 -.00000444  00000-0 -97980-5 0  9995,2 49449  53.2182  95.3308 0001453 116.7356 243.3785 15.08843424121873,6917.87,95.437,540.74,538.73,0.0
49449.0,STARLINK-3137,PAYLOAD,2024-01-26 11:06:47,15.08842631,0.0001383,53.2178,90.2761,100.6295,259.4853,0.00012481,1.699e-05,0.0,0 STARLINK-3137,1 49449U 21104AT  24026.46304774  .00001699  00000-0  12481-3 0  9991,2 49449  53.2178  90.2761 0001383 100.6295 259.4853 15.08842631123124,6917.872,95.437,540.694,538.781,0.0
49449.0,STARLINK-3137,PAYLOAD,2024-01-27 12:32:57,15.08842606,0.0001619,53.2195,85.5179,109.4299,250.6869,0.00011009,1.465e-05,0.0,0 STARLINK-3137,1 49449U 21104AT  24027.52288982  .00001465  00000-0  11009-3 0  9997,2 49449  53.2195  85.5179 0001619 109.4299 250.6869 15.08842606123285,6917.872,95.437,540.857,538.617,0.0
49449.0,STARLINK-3137,PAYLOAD,2024-01-28 04:26:47,15.08858531,0.0001459,53.2183,82.5409,98.3838,261.732,0.00016142,2.283e-05,0.0,0 STARLINK-3137,1 49449U 21104AT  24028.18527480  .00002283  00000-0  16142-3 0  9991,2 49449  53.2183  82.5409 0001459  98.3838 261.7320 15.08858531123382,6917.824,95.436,540.698,538.679,0.0
49449.0,STARLINK-3137,PAYLOAD,2024-01-28 10:48:22,15.08826097,0.0001582,53.2192,81.3545,93.3006,266.8168,-4.076e-05,-9.36e-06,0.0,0 STARLINK-3137,1 49449U 21104AT  24028.45026043 -.00000936  00000-0 -40760-4 0  9999,2 49449  53.2192  81.3545 0001582  93.3006 266.8168 15.08826097123422,6917.923,95.438,540.882,538.693,0.0
49449.0,STARLINK-3137,PAYLOAD,2024-01-28 12:23:45,15.08826727,0.0001619,53.2194,81.0573,95.4766,264.6411,-3.4544e-05,-8.38e-06,0.0,0 STARLINK-3137,1 49449U 21104AT  24028.51650028 -.00000838  00000-0 -34544-4 0  9996,2 49449  53.2194  81.0573 0001619  95.4766 264.6411 15.08826727122357,6917.921,95.438,540.906,538.666,0.0
49449.0,STARLINK-3137,PAYLOAD,2024-01-29 10:39:08,15.08844607,0.0001491,53.2183,76.8928,88.4483,271.668,3.3168e-05,2.4e-06,0.0,0 STARLINK-3137,1 49449U 21104AT  24029.44385186  .00000240  00000-0  33168-4 0  9995,2 49449  53.2183  76.8928 0001491  88.4483 271.6680 15.08844607123575,6917.866,95.437,540.763,538.7,0.0
49449.0,STARLINK-3137,PAYLOAD,2024-01-29 12:14:31,15.08846183,0.0001491,53.2183,76.594,83.9444,276.1718,3.5489e-05,2.77e-06,0.0,0 STARLINK-3137,1 49449U 21104AT  24029.51009093  .00000277  00000-0  35489-4 0  9991,2 49449  53.2183  76.5940 0001491  83.9444 276.1718 15.08846183122508,6917.861,95.437,540.758,538.695,0.0
49449.0,STARLINK-3137,PAYLOAD,2024-01-30 10:29:56,15.08831576,0.0001909,53.218,72.4336,71.1861,288.9339,0.00025371,3.751e-05,0.0,0 STARLINK-3137,1 49449U 21104AT  24030.43746268  .00003751  00000-0  25371-3 0  9994,2 49449  53.2180  72.4336 0001909  71.1861 288.9339 15.08831576123720,6917.906,95.438,541.092,538.451,0.0
49449.0,STARLINK-3137,PAYLOAD,2024-01-31 08:45:20,15.08849198,0.0001781,53.2175,68.2694,75.7851,284.3339,0.00021665,3.162e-05,0.0,0 STARLINK-3137,1 49449U 21104AT  24031.36481557  .00003162  00000-0  21665-3 0  9992,2 49449  53.2175  68.2694 0001781  75.7851 284.3339 15.08849198123865,6917.852,95.437,540.949,538.485,0.0
49449.0,STARLINK-3137,PAYLOAD,2024-02-01 11:46:53,15.0884428,0.0001535,53.2174,63.2117,94.6553,265.4615,7.9534e-05,9.78e-06,0.0,0 STARLINK-3137,1 49449U 21104AT  24032.49089579  .00000978  00000-0  79534-4 0  9996,2 49449  53.2174  63.2117 0001535  94.6553 265.4615 15.08844280124039,6917.867,95.437,540.794,538.67,0.0
49449.0,STARLINK-3137,PAYLOAD,2024-02-02 11:37:40,15.08851001,0.0001709,53.2178,58.7501,102.4044,257.7139,-2.3078e-05,-6.55e-06,0.0,0 STARLINK-3137,1 49449U 21104AT  24033.48449126 -.00000655  00000-0 -23078-4 0  9990,2 49449  53.2178  58.7501 0001709 102.4044 257.7139 15.08851001123106,6917.847,95.437,540.894,538.53,0.0
49449.0,STARLINK-3137,PAYLOAD,2024-02-03 06:42:18,15.0883508,0.0001837,53.2183,55.1808,106.3368,253.7826,5.4137e-05,5.73e-06,0.0,0 STARLINK-3137,1 49449U 21104AT  24034.27938071  .00000573  00000-0  54137-4 0  9997,2 49449  53.2183  55.1808 0001837 106.3368 253.7826 15.08835080123228,6917.895,95.438,541.031,538.49,0.0
49449.0,STARLINK-3137,PAYLOAD,2024-02-04 09:43:51,15.08828871,0.0002024,53.2195,50.125,109.1092,251.012,0.00049071,7.528e-05,0.0,0 STARLINK-3137,1 49449U 21104AT  24035.40546103  .00007528  00000-0  49071-3 0  9991,2 49449  53.2195  50.1250 0002024 109.1092 251.0120 15.08828871124477,6917.914,95.438,541.18,538.379,0.0
49449.0,STARLINK-3137,PAYLOAD,2024-02-05 07:59:15,15.08843497,0.0001676,53.2187,45.9659,89.5165,270.6019,0.00013852,1.917e-05,0.0,0 STARLINK-3137,1 49449U 21104AT  24036.33282043  .00001917  00000-0  13852-3 0  9998,2 49449  53.2187  45.9659 0001676  89.5165 270.6019 15.08843497123538,6917.87,95.437,540.894,538.575,0.0
49449.0,STARLINK-3137,PAYLOAD,2024-02-06 04:39:16,15.08838925,0.0001772,53.2179,42.1009,77.8825,282.2366,-2.2471e-05,-6.46e-06,0.0,0 STARLINK-3137,1 49449U 21104AT  24037.19394363 -.00000646  00000-0 -22471-4 0  9990,2 49449  53.2179  42.1009 0001772  77.8825 282.2366 15.08838925124745,6917.884,95.438,540.975,538.523,0.0
49449.0,STARLINK-3137,PAYLOAD,2024-02-06 09:25:25,15.08846127,0.0001721,53.2192,41.2084,83.7197,276.3991,6.7558e-05,7.87e-06,0.0,0 STARLINK-3137,1 49449U 21104AT  24037.39266158  .00000787  00000-0  67558-4 0  9991,2 49449  53.2192  41.2084 0001721  83.7197 276.3991 15.08846127123699,6917.862,95.437,540.917,538.536,0.0
49449.0,STARLINK-3137,PAYLOAD,2024-02-07 09:16:12,15.08852719,0.0001884,53.2196,36.7397,83.8487,276.272,1.2457e-06,-2.68e-06,0.0,0 STARLINK-3137,1 49449U 21104AT  24038.38625881 -.00000268  00000-0  12457-5 0  9997,2 49449  53.2196  36.7397 0001884  83.8487 276.2720 15.08852719123842,6917.842,95.437,541.01,538.403,0.0
49449.0,STARLINK-3137,PAYLOAD,2024-02-08 04:20:51,15.08840225,0.0002283,53.2177,33.1758,107.7341,252.39,8.344e-05,1.04e-05,0.0,0 STARLINK-3137,1 49449U 21104AT  24039.18114596  .00001040  00000-0  83440-4 0  9999,2 49449  53.2177  33.1758 0002283 107.7341 252.3900 15.08840225125040,6917.88,95.438,541.324,538.165,0.0
49449.0,STARLINK-3137,PAYLOAD,2024-02-08 09:07:00,15.0884486,0.0001714,53.2184,32.2845,102.7217,257.3967,9.9467e-05,1.296e-05,0.0,0 STARLINK-3137,1 49449U 21104AT  24039.37986308  .00001296  00000-0  99467-4 0  9997,2 49449  53.2184  32.2845 0001714 102.7217 257.3967 15.08844860123999,6917.866,95.437,540.916,538.545,0.0
49449.0,STARLINK-3137,PAYLOAD,2024-02-09 08:57:47,15.08849494,0.0001714,53.2191,27.8226,97.5167,262.602,8.7575e-05,1.106e-05,0.0,0 STARLINK-3137,1 49449U 21104AT  24040.37346093  .00001106  00000-0  87575-4 0  9997,2 49449  53.2191  27.8226 0001714  97.5167 262.6020 15.08849494125220,6917.851,95.437,540.902,538.531,0.0
49449.0,STARLINK-3137,PAYLOAD,2024-02-10 04:02:25,15.08844431,0.0001615,53.2182,24.2511,124.6106,235.5038,3.2145e-05,2.24e-06,0.0,0 STARLINK-3137,1 49449U 21104AT  24041.16834637  .00000224  00000-0  32145-4 0  9994,2 49449  53.2182  24.2511 0001615 124.6106 235.5038 15.08844431125340,6917.867,95.437,540.849,538.615,0.0
49449.0,STARLINK-3137,PAYLOAD,2024-02-10 08:48:34,15.08844186,0.0001703,53.2185,23.3622,116.2945,243.8222,8.8679e-05,1.124e-05,0.0,0 STARLINK-3137,1 49449U 21104AT  24041.36706612  .00001124  00000-0  88679-4 0  9990,2 49449  53.2185  23.3622 0001703 116.2945 243.8222 15.08844186124299,6917.868,95.437,540.911,538.554,0.0
49449.0,STARLINK-3137,PAYLOAD,2024-02-10 21:31:39,15.08839034,0.0001745,53.2178,20.9824,117.8454,242.2715,7.7928e-05,9.52e-06,0.0,0 STARLINK-3137,1 49449U 21104AT  24041.89698977  .00000952  00000-0  77928-4 0  9995,2 49449  53.2178  20.9824 0001745 117.8454 242.2715 15.08839034124371,6917.883,95.438,540.956,538.541,0.0
49449.0,STARLINK-3137,PAYLOAD,2024-02-11 05:28:34,15.08853499,0.0001601,53.2183,19.4975,112.7976,247.3185,0.00017058,2.429e-05,0.0,0 STARLINK-3137,1 49449U 21104AT  24042.22818054  .00002429  00000-0  17058-3 0  9991,2 49449  53.2183  19.4975 0001601 112.7976 247.3185 15.08853499125505,6917.839,95.437,540.812,538.597,0.0
